GLOBALSTAR M068         
1 32266U 07048D   25088.70561262 -.00000033  00000+0  39050-3 0  9996
2 32266  51.9875 184.5427 0000398 345.2256 168.6938 12.62818487807513
GLOBALSTAR M079         
1 37188U 10054A   25088.82830250 -.00000089  00000+0  82053-4 0  9997
2 37188  52.0064  21.3657 0000791  87.4380 305.4026 12.62272177666439
GLOBALSTAR M074         
1 37189U 10054B   25088.85637510 -.00000090  00000+0  75195-4 0  9996
2 37189  52.0040  20.6166 0000396  85.6189 313.4740 12.62267546667043
GLOBALSTAR M076         
1 37190U 10054C   25088.96981384 -.00000093  00000+0  59516-4 0  9993
2 37190  52.0056  20.4304 0000621 104.7646 333.0767 12.62260128666771
GLOBALSTAR M077         
1 37191U 10054D   25088.94235123 -.00000065  00000+0  21481-3 0  9993
2 37191  52.0095 337.3546 0000706  83.5362 287.1725 12.62272456667148
GLOBALSTAR M075         
1 37192U 10054E   25088.97389062 -.00000110  00000+0 -36006-4 0  9991
2 37192  51.9950  62.7196 0000354  81.3503 314.0622 12.62262711665843
GLOBALSTAR M073         
1 37193U 10054F   25088.96939115 -.00000067  00000+0  20459-3 0  9995
2 37193  52.0084 336.4989 0000769  92.2029 280.7767 12.62269569667837
GLOBALSTAR M083         
1 37739U 11033A   25088.93162109 -.00000063  00000+0  22885-3 0  9998
2 37739  51.9855 285.4522 0000931  88.0233  54.4842 12.62261712636843
GLOBALSTAR M088         
1 37740U 11033B   25088.75065095 -.00000084  00000+0  11102-3 0  9999
2 37740  51.9726 191.5581 0000624 110.1605  50.3050 12.62264693632363
GLOBALSTAR M091         
1 37741U 11033C   25088.92500100 -.00000062  00000+0  23415-3 0  9996
2 37741  51.9983 154.4424 0000595  92.7593  79.5323 12.62266607633174
GLOBALSTAR M085         
1 37742U 11033D   25088.83338633 -.00000087  00000+0  94446-4 0  9997
2 37742  51.9848 105.8281 0000475  82.7578  93.1552 12.62266940633676
GLOBALSTAR M081         
1 37743U 11033E   25088.98120700 -.00000081  00000+0  12495-3 0  9995
2 37743  51.9939 108.1160 0000528 104.6894 263.3742 12.62262295633844
GLOBALSTAR M089         
1 37744U 11033F   25088.66072911 -.00000106  00000+0 -13694-4 0  9993
2 37744  51.9931  63.3327 0000263 119.2887  51.9643 12.62267907634649
GLOBALSTAR M084         
1 38040U 11080A   25088.89781390 -.00000083  00000+0  11604-3 0  9999
2 38040  52.0006 289.8613 0000654 114.7750 354.0939 12.62264329612938
GLOBALSTAR M080         
1 38041U 11080B   25088.95858537 -.00000077  00000+0  14687-3 0  9992
2 38041  52.0060 291.2566 0000835 127.0565  17.4744 12.62270821612786
GLOBALSTAR M082         
1 38042U 11080C   25088.89523834 -.00000111  00000+0 -42463-4 0  9999
2 38042  52.0061 246.8831 0000915  75.6051  81.8936 12.62264680613488
GLOBALSTAR M092         
1 38043U 11080D   25088.92785116 -.00000072  00000+0  17586-3 0  9999
2 38043  52.0107 337.1566 0000643  82.2089 344.1642 12.62261660611945
GLOBALSTAR M090         
1 38044U 11080E   25088.92394182 -.00000108  00000+0 -25949-4 0  9993
2 38044  51.9872 240.7064 0000868  93.8488  73.5966 12.62268660613609
GLOBALSTAR M086         
1 38045U 11080F   25088.78777402 -.00000108  00000+0 -24061-4 0  9992
2 38045  51.9884 241.6660 0001587 127.3735  21.4113 12.62268659613538
GLOBALSTAR M097         
1 39072U 13005A   25088.86083586 -.00000068  00000+0  19937-3 0  9993
2 39072  52.0031 155.9105 0000671 110.9529 249.1409 12.62271308560799
GLOBALSTAR M093         
1 39073U 13005B   25088.59652775 -.00000066  00000+0  21045-3 0  9997
2 39073  51.9795 150.1428 0000628 110.4211 249.6723 12.62263250560718
GLOBALSTAR M094         
1 39074U 13005C   25088.91348504 -.00000111  00000+0 -43040-4 0  9998
2 39074  51.9959  63.4781 0000680  85.2374 274.8570 12.62269386562365
GLOBALSTAR M096         
1 39075U 13005D   25088.76838154 -.00000081  00000+0  12451-3 0  9993
2 39075  52.0054 112.3753 0000593  88.8822 271.2113 12.62269938561262
GLOBALSTAR M078         
1 39076U 13005E   25088.74145051 -.00000190  00000+0 -48341-3 0  9998
2 39076  51.9871 197.0724 0000936  42.5794 317.5145 12.62259213559881
GLOBALSTAR M095         
1 39077U 13005F   25088.68900221 -.00000081  00000+0  12477-3 0  9999
2 39077  51.9790 194.4704 0000929  80.0931 280.0040 12.62268254559730
GLOBALSTAR M087         
1 52888U 22064A   25088.95720778 -.00000069  00000+0  19299-3 0  9991
2 52888  51.9813 335.0590 0000846  75.5730 284.5230 12.62270042135032
